[{"OBJECT_NAME":"STARLINK-31459","OBJECT_ID":"2024-049C","EPOCH":"2026-03-09T05:11:09.763872","MEAN_MOTION":15.27579059,"ECCENTRICITY":7.958e-5,"INCLINATION":43.0004,"RA_OF_ASC_NODE":146.2142,"ARG_OF_PERICENTER":294.7089,"MEAN_ANOMALY":65.368,"EPHEMERIS_TYPE":0,"CLASSIFICATION_TYPE":"U","NORAD_CAT_ID":59233,"ELEMENT_SET_NO":999,"REV_AT_EPOCH":11232,"BSTAR":-8.9984727e-5,"MEAN_MOTION_DOT":-2.737e-5,"MEAN_MOTION_DDOT":0},{"OBJECT_NAME":"OBJECT H","OBJECT_ID":"2025-155H","EPOCH":"2026-03-09T22:09:58.611456","MEAN_MOTION":15.27590961,"ECCENTRICITY":0.00081993,"INCLINATION":97.4482,"RA_OF_ASC_NODE":37.3122,"ARG_OF_PERICENTER":152.0629,"MEAN_ANOMALY":208.1051,"EPHEMERIS_TYPE":0,"CLASSIFICATION_TYPE":"U","NORAD_CAT_ID":64883,"ELEMENT_SET_NO":999,"REV_AT_EPOCH":6559,"BSTAR":0.00050403256,"MEAN_MOTION_DOT":0.00013547,"MEAN_MOTION_DDOT":0}]
